H1 CPF  1  MCC 2022  8  1 13  7131 larets
H2  0304206 5557    27944 2022 07 31 23 45 00 2022 08 05 23 57 00   180 1 1  0 0 0
H9
10 0 59794 33660.000000 0      2375403.206      5659609.941     -3498556.989
10 0 59794 33840.000000 0      2346381.448      4837357.063     -4587172.306
10 0 59794 34020.000000 0      2208436.800      3841916.422     -5508289.838
10 0 59794 34200.000000 0      1962708.978      2712518.037     -6228697.036
10 0 59794 34380.000000 0      1615282.403      1492959.503     -6722575.923
10 0 59794 34560.000000 0      1177038.077       229887.537     -6972342.027
10 0 59794 34740.000000 0       663305.785     -1028970.502     -6969193.991
10 0 59794 34920.000000 0        93326.682     -2236570.401     -6713370.379
10 0 59794 35100.000000 0      -510451.453     -3348255.241     -6214122.519
10 0 59794 35280.000000 0     -1123231.174     -4323366.652     -5489409.524
10 0 59794 35460.000000 0     -1718848.624     -5126715.426     -4565309.975
10 0 59794 35640.000000 0     -2270855.728     -5729868.310     -3475157.947
10 0 59794 35820.000000 0     -2753663.131     -6112198.704     -2258408.835
10 0 59794 36000.000000 0     -3143694.983     -6261652.831      -959261.557
10 0 59794 36180.000000 0     -3420503.065     -6175190.107       374928.286
10 0 59794 36360.000000 0     -3567779.856     -5858859.604      1695389.037
10 0 59794 36540.000000 0     -3574214.508     -5327500.272      2953751.524
10 0 59794 36720.000000 0     -3434144.010     -4604074.848      4103863.257
10 0 59794 36900.000000 0     -3147964.563     -3718673.375      5103516.488
10 0 59794 37080.000000 0     -2722282.986     -2707235.683      5916016.837
10 0 59794 37260.000000 0     -2169800.211     -1610061.168      6511530.112
10 0 59794 37440.000000 0     -1508933.392      -470177.770      6868168.222
10 0 59794 37620.000000 0      -763191.010       668367.963      6972776.691
10 0 59794 37800.000000 0        39668.123      1762222.666      6821406.593
10 0 59794 37980.000000 0       868670.931      2770388.819      6419472.387
10 0 59794 38160.000000 0      1690829.622      3655780.322      5781579.872
10 0 59794 38340.000000 0      2472460.601      4386618.000      4931029.583
10 0 59794 38520.000000 0      3180579.735      4937617.554      3898998.318
10 0 59794 38700.000000 0      3784314.818      5290914.572      2723414.184
10 0 59794 38880.000000 0      4256276.997      5436691.867      1447556.634
10 0 59794 39060.000000 0      4573813.480      5373460.322       118419.908
10 0 59794 39240.000000 0      4720073.706      5107982.411     -1215080.668
10 0 59794 39420.000000 0      4684832.458      4654832.664     -2503978.045
10 0 59794 39600.000000 0      4465028.879      4035631.744     -3701106.912
10 0 59794 39780.000000 0      4064993.806      3277998.850     -4762860.544
10 0 59794 39960.000000 0      3496362.799      2414284.319     -5650770.572
10 0 59794 40140.000000 0      2777692.240      1480155.403     -6332855.283
10 0 59794 40320.000000 0      1933802.918       513106.348     -6784696.397
10 0 59794 40500.000000 0       994891.241      -449038.234     -6990225.233
10 0 59794 40680.000000 0        -4555.319     -1369574.082     -6942222.385
10 0 59794 40860.000000 0     -1027006.708     -2214277.865     -6642524.128
10 0 59794 41040.000000 0     -2033262.281     -2952639.629     -6101947.398
10 0 59794 41220.000000 0     -2983912.813     -3558940.479     -5339932.224
10 0 59794 41400.000000 0     -3840852.327     -4013145.029     -4383907.786
10 0 59794 41580.000000 0     -4568796.641     -4301581.290     -3268379.161
10 0 59794 41760.000000 0     -5136745.751     -4417375.473     -2033747.819
10 0 59794 41940.000000 0     -5519327.329     -4360619.052      -724891.825
10 0 59794 42120.000000 0     -5697953.026     -4138252.335       610451.590
10 0 59794 42300.000000 0     -5661724.576     -3763664.042      1923443.909
10 0 59794 42480.000000 0     -5408031.110     -3256016.739      3165972.083
10 0 59794 42660.000000 0     -4942801.284     -2639330.277      4292454.367
10 0 59794 42840.000000 0     -4280397.663     -1941372.921      5261547.332
10 0 59794 43020.000000 0     -3443159.103     -1192417.461      6037676.656
10 0 59794 43200.000000 0     -2460622.345      -423928.612      6592341.333
10 0 59794 43380.000000 0     -1368448.297       332765.512      6905149.719
10 0 59794 43560.000000 0      -207102.545      1047753.245      6964548.855
10 0 59794 43740.000000 0       979654.086      1693724.587      6768243.675
10 0 59794 43920.000000 0      2146421.700      2247025.430      6323294.990
10 0 59794 44100.000000 0      3247909.666      2688539.509      5645889.921
10 0 59794 44280.000000 0      4240720.422      3004369.826      4760789.563
10 0 59794 44460.000000 0      5085100.369      3186295.236      3700454.495
10 0 59794 44640.000000 0      5746589.959      3231981.656      2503870.839
10 0 59794 44820.000000 0      6197491.031      3144930.461      1215098.879
10 0 59794 45000.000000 0      6418070.615      2934168.663      -118392.473
10 0 59794 45180.000000 0      6397436.980      2613690.598     -1447541.383
10 0 59794 45360.000000 0      6134034.581      2201680.688     -2723565.219
10 0 59794 45540.000000 0      5635744.408      1719569.865     -3899802.773
10 0 59794 45720.000000 0      4919586.776      1190970.435     -4933447.147
10 0 59794 45900.000000 0      4011049.284       640551.164     -5787088.614
10 0 59794 46080.000000 0      2943094.512        92916.776     -6430012.661
10 0 59794 46260.000000 0      1754902.584      -428458.511     -6839226.990
10 0 59794 46440.000000 0       490408.622      -902202.184     -7000198.729
10 0 59794 46620.000000 0      -803311.949     -1309886.310     -6907302.071
10 0 59794 46800.000000 0     -2077758.767     -1636715.759     -6563975.170
10 0 59794 46980.000000 0     -3284775.558     -1872047.203     -5982593.744
10 0 59794 47160.000000 0     -4378323.418     -2009725.309     -5184063.633
10 0 59794 47340.000000 0     -5316217.787     -2048230.391     -4197138.676
10 0 59794 47520.000000 0     -6061769.118     -1990628.768     -3057459.623
10 0 59794 47700.000000 0     -6585261.109     -1844325.165     -1806330.472
10 0 59794 47880.000000 0     -6865196.088     -1620622.316      -489259.382
10 0 59794 48060.000000 0     -6889240.958     -1334104.145       845689.749
10 0 59794 48240.000000 0     -6654815.448     -1001868.063      2149673.516
10 0 59794 48420.000000 0     -6169281.532      -642645.762      3374895.987
10 0 59794 48600.000000 0     -5449720.166      -275856.981      4476404.219
10 0 59794 48780.000000 0     -4522301.816        79354.266      5413770.156
10 0 59794 48960.000000 0     -3421291.803       405050.058      6152583.899
10 0 59794 49140.000000 0     -2187741.366       685351.531      6665712.619
10 0 59794 49320.000000 0      -867918.728       907173.241      6934283.031
10 0 59794 49500.000000 0       488452.112      1060811.281      6948358.765
10 0 59794 49680.000000 0      1830075.923      1140361.480      6707301.075
10 0 59794 49860.000000 0      3106035.731      1143953.181      6219809.522
10 0 59794 50040.000000 0      4267746.384      1073788.477      5503637.371
10 0 59794 50220.000000 0      5270843.572       935984.782      4584979.004
10 0 59794 50400.000000 0      6076937.774       740225.868      3497544.448
10 0 59794 50580.000000 0      6655160.663       499236.151      2281329.378
10 0 59794 50760.000000 0      6983417.319       228099.187       981122.553
10 0 59794 50940.000000 0      7049285.049       -56545.313      -355190.418
10 0 59794 51120.000000 0      6850503.507      -337383.900     -1678457.885
10 0 59794 51300.000000 0      6395027.062      -597343.670     -2940139.116
10 0 59794 51480.000000 0      5700642.803      -820487.984     -4094134.269
10 0 59794 51660.000000 0      4794185.949      -992845.104     -5098485.496
10 0 59794 51840.000000 0      3710406.878     -1103126.231     -5916878.480
10 0 59794 52020.000000 0      2490559.606     -1143305.397     -6519897.169
10 0 59794 52200.000000 0      1180782.206     -1109036.335     -6885999.964
10 0 59794 52380.000000 0      -169657.196      -999893.159     -7002205.698
10 0 59794 52560.000000 0     -1510188.121      -819432.119     -6864489.061
10 0 59794 52740.000000 0     -2790784.503      -575072.461     -6477888.306
10 0 59794 52920.000000 0     -3963779.486      -277800.702     -5856326.103
10 0 59794 53100.000000 0     -4985601.042        58291.576     -5022154.878
10 0 59794 53280.000000 0     -5818385.423       416623.239     -4005423.039
10 0 59794 53460.000000 0     -6431411.530       778873.550     -2842869.146
10 0 59794 53640.000000 0     -6802295.940      1125841.111     -1576654.997
10 0 59794 53820.000000 0     -6917886.149      1438373.779      -252869.520
10 0 59794 54000.000000 0     -6774798.137      1698324.432      1080151.739
10 0 59794 54180.000000 0     -6379555.632      1889483.615      2373617.365
10 0 59794 54360.000000 0     -5748324.862      1998442.606      3580106.184
10 0 59794 54540.000000 0     -4906246.954      2015336.174      4655348.938
10 0 59794 54720.000000 0     -3886403.655      1934425.594      5559879.367
10 0 59794 54900.000000 0     -2728478.227      1754495.775      6260490.210
10 0 59794 55080.000000 0     -1477171.472      1479048.534      6731448.889
10 0 59794 55260.000000 0      -180439.931      1116279.867      6955425.575
10 0 59794 55440.000000 0      1112360.192       678843.656      6924111.540
10 0 59794 55620.000000 0      2352359.845       183410.693      6638525.065
10 0 59794 55800.000000 0      3493036.731      -349964.211      6108996.692
10 0 59794 55980.000000 0      4491989.004      -898649.280      5354828.208
10 0 59794 56160.000000 0      5312557.384     -1438389.780      4403623.367
10 0 59794 56340.000000 0      5925232.515     -1944371.973      3290303.869
10 0 59794 56520.000000 0      6308785.703     -2392352.237      2055830.369
99
